NORAD_CAT_ID,OBJECT_NAME,OBJECT_TYPE,EPOCH,MEAN_MOTION,ECCENTRICITY,INCLINATION,RA_OF_ASC_NODE,ARG_OF_PERICENTER,MEAN_ANOMALY,BSTAR,MEAN_MOTION_DOT,MEAN_MOTION_DDOT,TLE_LINE0,TLE_LINE1,TLE_LINE2,SEMIMAJOR_AXIS,PERIOD,APOGEE,PERIGEE,DECAYED
50202.0,STARLINK-3256,PAYLOAD,2024-01-16 13:34:35,15.08837289,0.0001423,53.2177,154.704,91.6043,268.5112,4.3337e-05,4.02e-06,0.0,0 STARLINK-3256,1 50202U 21125AY  24016.56568300  .00000402  00000-0  43337-4 0  9996,2 50202  53.2177 154.7040 0001423  91.6043 268.5112 15.08837289118501,6917.889,95.438,540.738,538.769,0.0
50202.0,STARLINK-3256,PAYLOAD,2024-01-16 16:45:21,15.08839693,0.0001417,53.2169,154.109,89.2083,270.9071,6.9227e-05,8.14e-06,0.0,0 STARLINK-3256,1 50202U 21125AY  24016.69816134  .00000814  00000-0  69227-4 0  9994,2 50202  53.2169 154.1090 0001417  89.2083 270.9071 15.08839693118525,6917.881,95.438,540.727,538.766,0.0
50202.0,STARLINK-3256,PAYLOAD,2024-01-17 15:00:44,15.0884546,0.0001469,53.2173,149.9434,72.8524,287.2629,3.7707e-05,3.12e-06,0.0,0 STARLINK-3256,1 50202U 21125AY  24017.62552028  .00000312  00000-0  37707-4 0  9998,2 50202  53.2173 149.9434 0001469  72.8524 287.2629 15.08845460118663,6917.864,95.437,540.745,538.712,0.0
50202.0,STARLINK-3256,PAYLOAD,2024-01-18 14:51:32,15.08842759,0.0001466,53.216,145.4864,55.2494,304.8636,0.00013898,1.925e-05,0.0,0 STARLINK-3256,1 50202U 21125AY  24018.61912181  .00001925  00000-0  13898-3 0  9993,2 50202  53.2160 145.4864 0001466  55.2494 304.8636 15.08842759118814,6917.872,95.437,540.751,538.723,0.0
50202.0,STARLINK-3256,PAYLOAD,2024-01-19 13:06:56,15.08782102,0.0001281,53.2179,141.3244,110.0589,250.0541,0.0010252,0.0001604,0.0,0 STARLINK-3256,1 50202U 21125AY  24019.54648966  .00016040  00000-0  10252-2 0  9997,2 50202  53.2179 141.3244 0001281 110.0589 250.0541 15.08782102118958,6918.057,95.441,540.809,539.036,0.0
50202.0,STARLINK-3256,PAYLOAD,2024-01-20 11:22:20,15.08839396,0.0001574,53.2178,137.1595,105.4221,254.6946,1.3136e-05,-7.9e-07,0.0,0 STARLINK-3256,1 50202U 21125AY  24020.47384374 -.00000079  00000-0  13136-4 0  9993,2 50202  53.2178 137.1595 0001574 105.4221 254.6946 15.08839396118615,6917.882,95.438,540.836,538.658,0.0
50202.0,STARLINK-3256,PAYLOAD,2024-01-20 14:33:06,15.08841682,0.0001513,53.2177,136.5649,103.3763,256.7398,3.1212e-05,2.09e-06,0.0,0 STARLINK-3256,1 50202U 21125AY  24020.60632182  .00000209  00000-0  31212-4 0  9990,2 50202  53.2177 136.5649 0001513 103.3763 256.7398 15.08841682119119,6917.875,95.437,540.787,538.694,0.0
50202.0,STARLINK-3256,PAYLOAD,2024-01-21 12:48:30,15.08840384,0.0001305,53.2165,132.3989,82.263,277.8511,-1.5212e-05,-5.3e-06,0.0,0 STARLINK-3256,1 50202U 21125AY  24021.53368658 -.00000530  00000-0 -15212-4 0  9998,2 50202  53.2165 132.3989 0001305  82.2630 277.8511 15.08840384118774,6917.879,95.438,540.647,538.841,0.0
50202.0,STARLINK-3256,PAYLOAD,2024-01-22 14:14:40,15.0884338,0.0001201,53.2163,127.6432,92.4277,267.6853,0.00015681,2.209e-05,0.0,0 STARLINK-3256,1 50202U 21125AY  24022.59352401  .00002209  00000-0  15681-3 0  9996,2 50202  53.2163 127.6432 0001201  92.4277 267.6853 15.08843380118930,6917.87,95.437,540.566,538.904,0.0
50202.0,STARLINK-3256,PAYLOAD,2024-01-23 10:54:41,15.08842114,0.0001291,53.2161,123.7772,101.8004,258.3133,0.00012729,1.739e-05,0.0,0 STARLINK-3256,1 50202U 21125AY  24023.45464623  .00001739  00000-0  12729-3 0  9999,2 50202  53.2161 123.7772 0001291 101.8004 258.3133 15.08842114119061,6917.874,95.437,540.632,538.846,0.0
50202.0,STARLINK-3256,PAYLOAD,2024-01-23 14:05:27,15.08854028,0.0001476,53.2187,123.183,65.289,294.8255,7.2536e-05,8.67e-06,0.0,0 STARLINK-3256,1 50202U 21125AY  24023.58712009  .00000867  00000-0  72536-4 0  9991,2 50202  53.2187 123.1830 0001476  65.2890 294.8255 15.08854028119088,6917.838,95.437,540.724,538.681,0.0
50202.0,STARLINK-3256,PAYLOAD,2024-01-24 12:20:52,15.08837918,0.0001624,53.2178,119.0223,82.7532,277.3644,1.4243e-05,-6.1e-07,0.0,0 STARLINK-3256,1 50202U 21125AY  24024.51449547 -.00000061  00000-0  14243-4 0  9997,2 50202  53.2178 119.0223 0001624  82.7532 277.3644 15.08837918119223,6917.887,95.438,540.875,538.628,0.0
50202.0,STARLINK-3256,PAYLOAD,2024-01-24 13:56:15,15.08838979,0.0001693,53.218,118.7242,71.8645,288.2532,2.0668e-05,4.1e-07,0.0,0 STARLINK-3256,1 50202U 21125AY  24024.58073545  .00000041  00000-0  20668-4 0  9990,2 50202  53.2180 118.7242 0001693  71.8645 288.2532 15.08838979119712,6917.884,95.438,540.92,538.577,0.0
50202.0,STARLINK-3256,PAYLOAD,2024-01-25 12:11:39,15.08848262,0.0002072,53.2182,114.5608,55.4279,304.6908,1.2845e-05,-8.4e-07,0.0,0 STARLINK-3256,1 50202U 21125AY  24025.50809279 -.00000084  00000-0  12845-4 0  9990,2 50202  53.2182 114.5608 0002072  55.4279 304.6908 15.08848262119375,6917.855,95.437,541.154,538.287,0.0
50202.0,STARLINK-3256,PAYLOAD,2024-01-26 12:02:25,15.08847246,0.0001774,53.2164,110.1046,61.8293,298.2878,0.00017994,2.577e-05,0.0,0 STARLINK-3256,1 50202U 21125AY  24026.50168916  .00002577  00000-0  17994-3 0  9994,2 50202  53.2164 110.1046 0001774  61.8293 298.2878 15.08847246120005,6917.858,95.437,540.95,538.496,0.0
50202.0,STARLINK-3256,PAYLOAD,2024-01-27 11:53:12,15.08854493,0.0001858,53.2176,105.6386,114.3138,245.8048,0.00016061,2.27e-05,0.0,0 STARLINK-3256,1 50202U 21125AY  24027.49528253  .00002270  00000-0  16061-3 0  9991,2 50202  53.2176 105.6386 0001858 114.3138 245.8048 15.08854493119679,6917.836,95.437,540.986,538.416,0.0
50202.0,STARLINK-3256,PAYLOAD,2024-01-28 05:22:27,15.08837353,0.0002025,53.2191,102.3698,111.805,248.3158,4.3011e-05,3.96e-06,0.0,0 STARLINK-3256,1 50202U 21125AY  24028.22393420  .00000396  00000-0  43011-4 0  9992,2 50202  53.2191 102.3698 0002025 111.8050 248.3158 15.08837353119786,6917.888,95.438,541.154,538.353,0.0
50202.0,STARLINK-3256,PAYLOAD,2024-01-28 11:44:00,15.08839197,0.0001872,53.2181,101.1753,116.5128,243.6057,-3.6313e-05,-8.66e-06,0.0,0 STARLINK-3256,1 50202U 21125AY  24028.48889402 -.00000866  00000-0 -36313-4 0  9991,2 50202  53.2181 101.1753 0001872 116.5128 243.6057 15.08839197120305,6917.883,95.438,541.043,538.453,0.0
50202.0,STARLINK-3256,PAYLOAD,2024-01-29 11:34:47,15.08848863,0.0001804,53.2176,96.7172,113.7359,246.3822,3.6297e-05,2.9e-06,0.0,0 STARLINK-3256,1 50202U 21125AY  24029.48248996  .00000290  00000-0  36297-4 0  9999,2 50202  53.2176  96.7172 0001804 113.7359 246.3822 15.08848863119974,6917.853,95.437,540.966,538.47,0.0
50202.0,STARLINK-3256,PAYLOAD,2024-01-30 11:25:35,15.0883443,0.0001748,53.2179,92.2551,102.7707,257.3481,8.3712e-05,1.044e-05,0.0,0 STARLINK-3256,1 50202U 21125AY  24030.47610148  .00001044  00000-0  83712-4 0  9994,2 50202  53.2179  92.2551 0001748 102.7707 257.3481 15.08834430120128,6917.897,95.438,540.972,538.553,0.0
50202.0,STARLINK-3256,PAYLOAD,2024-01-30 13:00:58,15.08835142,0.0001794,53.2181,91.9572,100.2183,259.9011,8.5523e-05,1.073e-05,0.0,0 STARLINK-3256,1 50202U 21125AY  24030.54234127  .00001073  00000-0  85523-4 0  9995,2 50202  53.2181  91.9572 0001794 100.2183 259.9011 15.08835142120614,6917.895,95.438,541.001,538.519,0.0
50202.0,STARLINK-3256,PAYLOAD,2024-01-31 09:40:58,15.0884513,0.0001752,53.2187,88.0914,85.994,274.1253,7.7171e-05,9.4e-06,0.0,0 STARLINK-3256,1 50202U 21125AY  24031.40345638  .00000940  00000-0  77171-4 0  9993,2 50202  53.2187  88.0914 0001752  85.9940 274.1253 15.08845130120267,6917.865,95.437,540.942,538.518,0.0
50202.0,STARLINK-3256,PAYLOAD,2024-01-31 12:51:44,15.08851271,0.0002116,53.2187,87.4968,94.1576,265.9658,2.3172e-05,8.1e-07,0.0,0 STARLINK-3256,1 50202U 21125AY  24031.53593329  .00000081  00000-0  23172-4 0  9997,2 50202  53.2187  87.4968 0002116  94.1576 265.9658 15.08851271120766,6917.846,95.437,541.175,538.247,0.0
50202.0,STARLINK-3256,PAYLOAD,2024-02-01 09:31:46,15.08837224,0.0001739,53.2188,83.6325,83.9488,276.1703,4.3148e-05,3.99e-06,0.0,0 STARLINK-3256,1 50202U 21125AY  24032.39706311  .00000399  00000-0  43148-4 0  9996,2 50202  53.2188  83.6325 0001739  83.9488 276.1703 15.08837224120419,6917.889,95.438,540.957,538.551,0.0
50202.0,STARLINK-3256,PAYLOAD,2024-02-01 12:42:32,15.08838716,0.000176,53.219,83.0371,84.1709,275.9484,5.4582e-05,5.81e-06,0.0,0 STARLINK-3256,1 50202U 21125AY  24032.52954215  .00000581  00000-0  54582-4 0  9996,2 50202  53.2190  83.0371 0001760  84.1709 275.9484 15.08838716120915,6917.884,95.438,540.967,538.532,0.0
50202.0,STARLINK-3256,PAYLOAD,2024-02-02 09:22:32,15.08850746,0.000158,53.2178,79.1701,98.5368,261.5803,1.7786e-05,-5e-08,0.0,0 STARLINK-3256,1 50202U 21125AY  24033.39065349 -.00000005  00000-0  17786-4 0  9990,2 50202  53.2178  79.1701 0001580  98.5368 261.5803 15.08850746120568,6917.848,95.437,540.806,538.62,0.0
50202.0,STARLINK-3256,PAYLOAD,2024-02-02 12:33:18,15.08848495,0.0001803,53.2195,78.575,88.9551,271.1648,8.8818e-05,1.126e-05,0.0,0 STARLINK-3256,1 50202U 21125AY  24033.52313323  .00001126  00000-0  88818-4 0  9991,2 50202  53.2195  78.5750 0001803  88.9551 271.1648 15.08848495121067,6917.854,95.437,540.967,538.472,0.0
50202.0,STARLINK-3256,PAYLOAD,2024-02-03 02:51:47,15.08838997,0.0001682,53.2178,75.8943,99.107,261.0113,-3.6387e-06,-3.46e-06,0.0,0 STARLINK-3256,1 50202U 21125AY  24034.11930116 -.00000346  00000-0 -36387-5 0  9992,2 50202  53.2178  75.8943 0001682  99.1070 261.0113 15.08838997120674,6917.883,95.438,540.912,538.585,0.0
50202.0,STARLINK-3256,PAYLOAD,2024-02-03 09:13:19,15.0884006,0.0001482,53.2171,74.7075,95.967,264.1491,4.5116e-05,4.3e-06,0.0,0 STARLINK-3256,1 50202U 21125AY  24034.38425913  .00000430  00000-0  45116-4 0  9996,2 50202  53.2171  74.7075 0001482  95.9670 264.1491 15.08840060121194,6917.88,95.438,540.77,538.72,0.0
50202.0,STARLINK-3256,PAYLOAD,2024-02-04 12:14:52,15.088513,0.0001645,53.2175,69.6553,112.8402,247.2764,3.1286e-05,2.1e-06,0.0,0 STARLINK-3256,1 50202U 21125AY  24035.51033152  .00000210  00000-0  31286-4 0  9991,2 50202  53.2175  69.6553 0001645 112.8402 247.2764 15.08851300120884,6917.846,95.437,540.849,538.573,0.0
